[{"OBJECT_NAME":"STARLINK-32410","OBJECT_ID":"2024-204P","EPOCH":"2026-03-09T09:33:07.264800","MEAN_MOTION":15.30199223,"ECCENTRICITY":0.00011316,"INCLINATION":53.16,"RA_OF_ASC_NODE":128.3831,"ARG_OF_PERICENTER":68.5581,"MEAN_ANOMALY":291.554,"EPHEMERIS_TYPE":0,"CLASSIFICATION_TYPE":"U","NORAD_CAT_ID":61887,"ELEMENT_SET_NO":999,"REV_AT_EPOCH":7505,"BSTAR":-7.7259511e-5,"MEAN_MOTION_DOT":-2.646e-5,"MEAN_MOTION_DDOT":0},{"OBJECT_NAME":"CZ-4C R\/B","OBJECT_ID":"2018-031F","EPOCH":"2026-03-09T18:17:36.260736","MEAN_MOTION":15.22605712,"ECCENTRICITY":0.00804945,"INCLINATION":98.1311,"RA_OF_ASC_NODE":341.6719,"ARG_OF_PERICENTER":21.712,"MEAN_ANOMALY":338.7495,"EPHEMERIS_TYPE":0,"CLASSIFICATION_TYPE":"U","NORAD_CAT_ID":43264,"ELEMENT_SET_NO":999,"REV_AT_EPOCH":43612,"BSTAR":0.00044368098,"MEAN_MOTION_DOT":0.00011203,"MEAN_MOTION_DDOT":0}]
